$$SOE
2460721.500000000, A.D. 2025-Feb-15 00:00:00.0000, 2.920463623884442E+07, 4.943087771545517E+08, -1.066281572769981E+08,
2460728.500000000, A.D. 2025-Feb-22 00:00:00.0000, 2.104553998910467E+07, 4.966131147361048E+08, -1.083002462211491E+08,
2460735.500000000, A.D. 2025-Mar-01 00:00:00.0000, 1.287882403680266E+07, 4.987347396601200E+08, -1.099322072457877E+08,
2460742.500000000, A.D. 2025-Mar-08 00:00:00.0000, 4.707563340297611E+06, 5.006751790659611E+08, -1.115239448612179E+08,
2460749.500000000, A.D. 2025-Mar-15 00:00:00.0000, -3.465241138604766E+06, 5.024359543048925E+08, -1.130753729041770E+08,
2460756.500000000, A.D. 2025-Mar-22 00:00:00.0000, -1.163666130640201E+07, 5.040185806138050E+08, -1.145864136441183E+08,
2460763.500000000, A.D. 2025-Mar-29 00:00:00.0000, -1.980383956872933E+07, 5.054245646357524E+08, -1.160569972381364E+08,
2460770.500000000, A.D. 2025-Apr-05 00:00:00.0000, -2.796398489009748E+07, 5.066554029185382E+08, -1.174870613061804E+08,
2460777.500000000, A.D. 2025-Apr-12 00:00:00.0000, -3.611436920256168E+07, 5.077125814879024E+08, -1.188765504394862E+08,
2460784.500000000, A.D. 2025-Apr-19 00:00:00.0000, -4.425232434534384E+07, 5.085975756065169E+08, -1.202254156948815E+08,
2460791.500000000, A.D. 2025-Apr-26 00:00:00.0000, -5.237523925903851E+07, 5.093118495093521E+08, -1.215336141145362E+08,
2460798.500000000, A.D. 2025-May-03 00:00:00.0000, -6.048055731610452E+07, 5.098568561290380E+08, -1.228011082783113E+08,
2460805.500000000, A.D. 2025-May-10 00:00:00.0000, -6.856577375450827E+07, 5.102340368148695E+08, -1.240278658890287E+08,
2460812.500000000, A.D. 2025-May-17 00:00:00.0000, -7.662843317336878E+07, 5.104448209998465E+08, -1.252138593958701E+08,
2460819.500000000, A.D. 2025-May-24 00:00:00.0000, -8.466612691245800E+07, 5.104906257570819E+08, -1.263590656748464E+08,
2460826.500000000, A.D. 2025-May-31 00:00:00.0000, -9.267648989382687E+07, 5.103728555528466E+08, -1.274634657779140E+08,
2460833.500000000, A.D. 2025-Jun-07 00:00:00.0000, -1.006571973226500E+08, 5.100929033981103E+08, -1.285270446144837E+08,
2460840.500000000, A.D. 2025-Jun-14 00:00:00.0000, -1.086059636073546E+08, 5.096521527289151E+08, -1.295497904018997E+08,
2460847.500000000, A.D. 2025-Jun-21 00:00:00.0000, -1.165205422780593E+08, 5.090519767401838E+08, -1.305316942620188E+08,
2460854.500000000, A.D. 2025-Jun-28 00:00:00.0000, -1.243987237726243E+08, 5.082937369347138E+08, -1.314727501052714E+08,
2460861.500000000, A.D. 2025-Jul-05 00:00:00.0000, -1.322383326039461E+08, 5.073787830426490E+08, -1.323729544864429E+08,
2460868.500000000, A.D. 2025-Jul-12 00:00:00.0000, -1.400372250956840E+08, 5.063084535042611E+08, -1.332323063878838E+08,
2460875.500000000, A.D. 2025-Jul-19 00:00:00.0000, -1.477932874935259E+08, 5.050840759388301E+08, -1.340508069934381E+08,
2460882.500000000, A.D. 2025-Jul-26 00:00:00.0000, -1.555044342391189E+08, 5.037069675412822E+08, -1.348284594760025E+08,
2460889.500000000, A.D. 2025-Aug-02 00:00:00.0000, -1.631686063384754E+08, 5.021784354268241E+08, -1.355652688021025E+08,
2460896.500000000, A.D. 2025-Aug-09 00:00:00.0000, -1.707837697987284E+08, 5.004997769078221E+08, -1.362612415560351E+08,
2460903.500000000, A.D. 2025-Aug-16 00:00:00.0000, -1.783479140536825E+08, 4.986722796388091E+08, -1.369163857950370E+08,
2460910.500000000, A.D. 2025-Aug-23 00:00:00.0000, -1.858590500830474E+08, 4.966972216453871E+08, -1.375307109602318E+08,
2460917.500000000, A.D. 2025-Aug-30 00:00:00.0000, -1.933152078941146E+08, 4.945758719506079E+08, -1.381042278145536E+08,
2460924.500000000, A.D. 2025-Sep-06 00:00:00.0000, -2.007144347816055E+08, 4.923094927991676E+08, -1.386369481954598E+08,
2460931.500000000, A.D. 2025-Sep-13 00:00:00.0000, -2.080547960331016E+08, 4.898993409962561E+08, -1.391288846313848E+08,
2460938.500000000, A.D. 2025-Sep-20 00:00:00.0000, -2.153343748037420E+08, 4.873466667148892E+08, -1.395800502549595E+08,
2460945.500000000, A.D. 2025-Sep-27 00:00:00.0000, -2.225512701001177E+08, 4.846527128822484E+08, -1.399904588547966E+08,
2460952.500000000, A.D. 2025-Oct-04 00:00:00.0000, -2.297035948883065E+08, 4.818187156842473E+08, -1.403601248363648E+08,
2460959.500000000, A.D. 2025-Oct-11 00:00:00.0000, -2.367894746978094E+08, 4.788459052449552E+08, -1.406890631341196E+08,
2460966.500000000, A.D. 2025-Oct-18 00:00:00.0000, -2.438070464363652E+08, 4.757355062063172E+08, -1.409772891229283E+08,
2460973.500000000, A.D. 2025-Oct-25 00:00:00.0000, -2.507544572749226E+08, 4.724887382197119E+08, -1.412248185407186E+08,
2460980.500000000, A.D. 2025-Nov-01 00:00:00.0000, -2.576298635619238E+08, 4.691068163658248E+08, -1.414316674249369E+08,
2460987.500000000, A.D. 2025-Nov-08 00:00:00.0000, -2.644314297306779E+08, 4.655909514724873E+08, -1.415978520687674E+08,
2460994.500000000, A.D. 2025-Nov-15 00:00:00.0000, -2.711573270501884E+08, 4.619423502728355E+08, -1.417233890155511E+08,
2461001.500000000, A.D. 2025-Nov-22 00:00:00.0000, -2.778057318150904E+08, 4.581622156246020E+08, -1.418082951103502E+08,
2461008.500000000, A.D. 2025-Nov-29 00:00:00.0000, -2.843748231266202E+08, 4.542517479263248E+08, -1.418525875019531E+08,
2461015.500000000, A.D. 2025-Dec-06 00:00:00.0000, -2.908627825407881E+08, 4.502121475957604E+08, -1.418562833979174E+08,
2461022.500000000, A.D. 2025-Dec-13 00:00:00.0000, -2.972677951479986E+08, 4.460446152411138E+08, -1.418193998877705E+08,
2461029.500000000, A.D. 2025-Dec-20 00:00:00.0000, -3.035880485893173E+08, 4.417503505481177E+08, -1.417419540705267E+08,
2461036.500000000, A.D. 2025-Dec-27 00:00:00.0000, -3.098217310827936E+08, 4.373305524752228E+08, -1.416239631764431E+08,
2461043.500000000, A.D. 2026-Jan-03 00:00:00.0000, -3.159670299180527E+08, 4.327864201433149E+08, -1.414654445998919E+08,
2461050.500000000, A.D. 2026-Jan-10 00:00:00.0000, -3.220221303078555E+08, 4.281191537427468E+08, -1.412664159088488E+08,
2461057.500000000, A.D. 2026-Jan-17 00:00:00.0000, -3.279852143626638E+08, 4.233299553676910E+08, -1.410268948595979E+08,
2461064.500000000, A.D. 2026-Jan-24 00:00:00.0000, -3.338544601090215E+08, 4.184200298021659E+08, -1.407468994217434E+08,
2461071.500000000, A.D. 2026-Jan-31 00:00:00.0000, -3.396280405271517E+08, 4.133905852521006E+08, -1.404264478160963E+08,
2461078.500000000, A.D. 2026-Feb-07 00:00:00.0000, -3.453041225452073E+08, 4.082428339679001E+08, -1.400655585755901E+08,
2461085.500000000, A.D. 2026-Feb-14 00:00:00.0000, -3.508808657362291E+08, 4.029779927440070E+08, -1.396642506535664E+08,
2461092.500000000, A.D. 2026-Feb-21 00:00:00.0000, -3.563564203296278E+08, 3.975972838742645E+08, -1.392225435678046E+08,
2461099.500000000, A.D. 2026-Feb-28 00:00:00.0000, -3.617289256218573E+08, 3.921019377185609E+08, -1.387404573868645E+08,
2461106.500000000, A.D. 2026-Mar-07 00:00:00.0000, -3.669965108445305E+08, 3.864931949333476E+08, -1.382180125299446E+08,
2461113.500000000, A.D. 2026-Mar-14 00:00:00.0000, -3.721572957129118E+08, 3.807723060353047E+08, -1.376552298255264E+08,
2461120.500000000, A.D. 2026-Mar-21 00:00:00.0000, -3.772093888711152E+08, 3.749405311971442E+08, -1.370521307552745E+08,
2461127.500000000, A.D. 2026-Mar-28 00:00:00.0000, -3.821508862436835E+08, 3.689991413061773E+08, -1.364087376154082E+08,
2461134.500000000, A.D. 2026-Apr-04 00:00:00.0000, -3.869798698970100E+08, 3.629494193226655E+08, -1.357250736197236E+08,
2461141.500000000, A.D. 2026-Apr-11 00:00:00.0000, -3.916944071360047E+08, 3.567926615803645E+08, -1.350011629990648E+08,
2461148.500000000, A.D. 2026-Apr-18 00:00:00.0000, -3.962925496761041E+08, 3.505301790247974E+08, -1.342370311126141E+08,
2461155.500000000, A.D. 2026-Apr-25 00:00:00.0000, -4.007723328442214E+08, 3.441632984063565E+08, -1.334327045743009E+08,
2461162.500000000, A.D. 2026-May-02 00:00:00.0000, -4.051317747773153E+08, 3.376933634012416E+08, -1.325882113999448E+08,
2461169.500000000, A.D. 2026-May-09 00:00:00.0000, -4.093688754932026E+08, 3.311217355968402E+08, -1.317035811923627E+08,
2461176.500000000, A.D. 2026-May-16 00:00:00.0000, -4.134816154547231E+08, 3.244497954827554E+08, -1.307788453881076E+08,
2461183.500000000, A.D. 2026-May-23 00:00:00.0000, -4.174679535745994E+08, 3.176789444725726E+08, -1.298140374872925E+08,
2461190.500000000, A.D. 2026-May-30 00:00:00.0000, -4.213258267392464E+08, 3.108106082787441E+08, -1.288091930502744E+08,
2461197.500000000, A.D. 2026-Jun-06 00:00:00.0000, -4.250531511688173E+08, 3.038462383703943E+08, -1.277643497003953E+08,
2461204.500000000, A.D. 2026-Jun-13 00:00:00.0000, -4.286478219469751E+08, 2.967873117158161E+08, -1.266795474530988E+08,
2461211.500000000, A.D. 2026-Jun-20 00:00:00.0000, -4.321077112222180E+08, 2.896353317381564E+08, -1.255548290871462E+08,
2461218.500000000, A.D. 2026-Jun-27 00:00:00.0000, -4.354306667812101E+08, 2.823918301483821E+08, -1.243902404318753E+08,
2461225.500000000, A.D. 2026-Jul-04 00:00:00.0000, -4.386145109957308E+08, 2.750583688857628E+08, -1.231858306358313E+08,
2461232.500000000, A.D. 2026-Jul-11 00:00:00.0000, -4.416570398902184E+08, 2.676365420391121E+08, -1.219416524524613E+08,
2461239.500000000, A.D. 2026-Jul-18 00:00:00.0000, -4.445560222380458E+08, 2.601279777795551E+08, -1.206577625507187E+08,
2461246.500000000, A.D. 2026-Jul-25 00:00:00.0000, -4.473091986631248E+08, 2.525343403126068E+08, -1.193342218539978E+08,
2461253.500000000, A.D. 2026-Aug-01 00:00:00.0000, -4.499142807000489E+08, 2.448573318066457E+08, -1.179710959171694E+08,
2461260.500000000, A.D. 2026-Aug-08 00:00:00.0000, -4.523689495994685E+08, 2.370986942673378E+08, -1.165684553658224E+08,
2461267.500000000, A.D. 2026-Aug-15 00:00:00.0000, -4.546708544655508E+08, 2.292602118140292E+08, -1.151263764004720E+08,
2461274.500000000, A.D. 2026-Aug-22 00:00:00.0000, -4.568176104890559E+08, 2.213437145852369E+08, -1.136449411977985E+08,
2461281.500000000, A.D. 2026-Aug-29 00:00:00.0000, -4.588067995686644E+08, 2.133510829070874E+08, -1.121242381133321E+08,
$$EOE